COSMOS 2569 [GLONASS-K2]
1 57517U 23114A   26060.32428571  .00000038  00000+0  00000+0 0  9991
2 57517  65.2399  76.2569 0012874 291.4204  68.4967  2.13103901 19965
BEIDOU-3 M28            
1 58654U 23207A   26059.29684995 -.00000002  00000+0  00000+0 0  9997
2 58654  55.6562  65.9752 0004867 301.5322  58.4601  1.86229645 14815
BEIDOU-3 M26            
1 58655U 23207B   26060.16823854 -.00000004  00000+0  00000+0 0  9997
2 58655  55.6592  65.9320 0005710 287.4313  72.5442  1.86229561 14817
GSAT0225 (GALILEO 29)   
1 59598U 24079A   26059.47679627  .00000008  00000+0  00000+0 0  9994
2 59598  55.0470 104.1172 0002500 256.3085 211.1082  1.70474768 11462
GSAT0227 (GALILEO 30)   
1 59600U 24079C   26060.07188623  .00000010  00000+0  00000+0 0  9990
2 59600  55.0426 104.0995 0000415  85.7874 274.2997  1.70474778 11525
GSAT0232 (GALILEO 32)   
1 61182U 24167A   26048.66150565  .00000069  00000+0  00000+0 0  9995
2 61182  55.2225 224.5881 0003600 296.6314 116.1306  1.70443939  8265
GSAT0226 (GALILEO 31)   
1 61183U 24167B   26058.99261111  .00000031  00000+0  00000+0 0  9992
2 61183  55.2198 224.3131 0001695 129.0505 235.5609  1.70473900  8997
BEIDOU-3 M25            
1 61186U 24168B   26060.25125882 -.00000047  00000+0  00000+0 0  9990
2 61186  54.5685 305.9942 0004308 317.7219 214.9030  1.86229934  9770
BEIDOU-3 M27            
1 61187U 24168C   26058.86565681 -.00000044  00000+0  00000+0 0  9997
2 61187  54.5652 306.0258 0002895  18.1383  80.5013  1.86230003  7225
NAVSTAR 83 (USA 440)    
1 62339U 24242A   26059.41642148 -.00000100  00000+0  00000+0 0  9999
2 62339  54.8934 338.5934 0015681 355.9356 192.4850  2.00569355  9070
NVS-02 (IRNSS-1K)       
1 62850U 25020A   26059.64863139  .00000793  00000+0  69980-3 0  9995
2 62850  20.8439 299.1206 7349367  77.2527 349.0950  2.17707374  8610
QZS-6 (MICHIBIKI-6)     
1 62876U 25023A   26060.50858034 -.00000251  00000+0  00000+0 0  9995
2 62876   0.0448 296.8308 0001948  33.2713 102.7935  1.00270649  3878
COSMOS 2584 [GLONASS-K2]
1 63130U 25042A   26059.74188024  .00000039  00000+0  00000+0 0  9992
2 63130  65.0213  76.4877 0007823 236.2440 123.7373  2.13103267  7730
NAVSTAR 84 (USA 545)    
1 64202U 25116A   26060.39557933 -.00000066  00000+0  00000+0 0  9998
2 64202  55.1654  35.4679 0008434 324.7400  36.5418  2.00553169  5716
COSMOS 2596 [GLONASS-K1]
1 65590U 25206B   26060.22038066 -.00000049  00000+0  00000+0 0  9993
2 65590  64.6960 318.7463 0012932 315.1569 169.5039  2.13100085  3610
GSAT0233 (GALILEO 33)   
1 67160U 25302A   26044.50000000 -.00000008  00000+0  00000+0 0  9990
2 67160  54.3935 105.2952 0003011 207.0582 359.4109  1.70474578    20
GSAT0234 (GALILEO 34)   
1 67162U 25302C   26044.50000000 -.00000008  00000+0  00000+0 0  9992
2 67162  54.3967 105.2938 0003081 266.8423 119.7309  1.70475065   127
NAVSTAR 85 (USA 581)    
1 67588U 26017A   26060.00680633  .00000018  00000+0  00000+0 0  9997
2 67588  55.0163  93.0952 0001376  22.1631 337.9150  2.00560915429445
